{
  "type": "FeatureCollection",
  "features": [
    {
      "type": "Feature",
      "properties": {
        "norad_id": 19071,
        "name": "OSCAR 32",
        "group": "nnss",
        "lat": -72.13269923993376,
        "lon": -164.15721136103048,
        "alt_km": 1216.063233992717,
        "timestamp": "2025-12-22T20:43:46.117332+00:00",
        "meta_object_name": "OSCAR 32",
        "meta_object_id": "1988-033B",
        "meta_epoch": "2025-12-22T13:01:57.455904",
        "meta_mean_motion": 13.27955525,
        "meta_eccentricity": 0.01890722,
        "meta_inclination": 90.3208,
        "meta_ra_of_asc_node": 16.8286,
        "meta_arg_of_pericenter": 139.6372,
        "meta_mean_anomaly": 18.1912,
        "meta_ephemeris_type": 0,
        "meta_classification_type": "U",
        "meta_norad_cat_id": 19071,
        "meta_element_set_no": 999,
        "meta_rev_at_epoch": 82395,
        "meta_bstar": 0.00016166528,
        "meta_mean_motion_dot": 9e-07,
        "meta_mean_motion_ddot": 0,
        "tle_line1": "1 19071U 88033B   25356.54302611  .00000090  00000+0  16167-3 0  9995",
        "tle_line2": "2 19071  90.3208  16.8286 0189072 139.6372  18.1912 13.27955525823954"
      },
      "geometry": {
        "type": "Point",
        "coordinates": [
          -164.15721136103048,
          -72.13269923993376
        ]
      }
    },
    {
      "type": "Feature",
      "properties": {
        "norad_id": 19223,
        "name": "NOVA 2",
        "group": "nnss",
        "lat": -84.35901811401291,
        "lon": -101.60542465585006,
        "alt_km": 1178.8147676917815,
        "timestamp": "2025-12-22T20:43:46.117342+00:00",
        "meta_object_name": "NOVA 2",
        "meta_object_id": "1988-052A",
        "meta_epoch": "2025-12-22T12:11:28.775616",
        "meta_mean_motion": 13.22936917,
        "meta_eccentricity": 0.00297521,
        "meta_inclination": 89.9867,
        "meta_ra_of_asc_node": 78.2603,
        "meta_arg_of_pericenter": 349.9123,
        "meta_mean_anomaly": 21.4395,
        "meta_ephemeris_type": 0,
        "meta_classification_type": "U",
        "meta_norad_cat_id": 19223,
        "meta_element_set_no": 999,
        "meta_rev_at_epoch": 81077,
        "meta_bstar": 0.00019085465,
        "meta_mean_motion_dot": 8.9e-07,
        "meta_mean_motion_ddot": 0,
        "tle_line1": "1 19223U 88052A   25356.50797194  .00000089  00000+0  19085-3 0  9995",
        "tle_line2": "2 19223  89.9867  78.2603 0029752 349.9123  21.4395 13.22936917810778"
      },
      "geometry": {
        "type": "Point",
        "coordinates": [
          -101.60542465585006,
          -84.35901811401291
        ]
      }
    },
    {
      "type": "Feature",
      "properties": {
        "norad_id": 19419,
        "name": "OSCAR 25",
        "group": "nnss",
        "lat": -21.732364426740595,
        "lon": 20.290536016768062,
        "alt_km": 1141.7935122824956,
        "timestamp": "2025-12-22T20:43:46.117352+00:00",
        "meta_object_name": "OSCAR 25",
        "meta_object_id": "1988-074A",
        "meta_epoch": "2025-12-22T14:19:29.148960",
        "meta_mean_motion": 13.4262514,
        "meta_eccentricity": 0.00950124,
        "meta_inclination": 90.0337,
        "meta_ra_of_asc_node": 20.2762,
        "meta_arg_of_pericenter": 217.3285,
        "meta_mean_anomaly": 271.0129,
        "meta_ephemeris_type": 0,
        "meta_classification_type": "U",
        "meta_norad_cat_id": 19419,
        "meta_element_set_no": 999,
        "meta_rev_at_epoch": 82772,
        "meta_bstar": 0.00013277742,
        "meta_mean_motion_dot": 8.6e-07,
        "meta_mean_motion_ddot": 0,
        "tle_line1": "1 19419U 88074A   25356.59686515  .00000086  00000+0  13278-3 0  9994",
        "tle_line2": "2 19419  90.0337  20.2762 0095012 217.3285 271.0129 13.42625140827728"
      },
      "geometry": {
        "type": "Point",
        "coordinates": [
          20.290536016768062,
          -21.732364426740595
        ]
      }
    },
    {
      "type": "Feature",
      "properties": {
        "norad_id": 19420,
        "name": "OSCAR 31",
        "group": "nnss",
        "lat": -40.07279446213504,
        "lon": -159.40104893643564,
        "alt_km": 1037.2726731686816,
        "timestamp": "2025-12-22T20:43:46.117363+00:00",
        "meta_object_name": "OSCAR 31",
        "meta_object_id": "1988-074B",
        "meta_epoch": "2025-12-22T03:53:19.034304",
        "meta_mean_motion": 13.42586261,
        "meta_eccentricity": 0.00933578,
        "meta_inclination": 90.0353,
        "meta_ra_of_asc_node": 20.6262,
        "meta_arg_of_pericenter": 212.7151,
        "meta_mean_anomaly": 217.5501,
        "meta_ephemeris_type": 0,
        "meta_classification_type": "U",
        "meta_norad_cat_id": 19420,
        "meta_element_set_no": 999,
        "meta_rev_at_epoch": 82777,
        "meta_bstar": 0.00014692008,
        "meta_mean_motion_dot": 9.4e-07,
        "meta_mean_motion_ddot": 0,
        "tle_line1": "1 19420U 88074B   25356.16202586  .00000094  00000+0  14692-3 0  9991",
        "tle_line2": "2 19420  90.0353  20.6262 0093357 212.7151 217.5501 13.42586261827772"
      },
      "geometry": {
        "type": "Point",
        "coordinates": [
          -159.40104893643564,
          -40.07279446213504
        ]
      }
    }
  ]
}